ONEWEB-0570             
1 55149U 23004K   24065.77469163 -.00000063  00000+0 -19371-3 0  9997
2 55149  87.9217 141.3958 0002007 123.7052 236.4271 13.18685503 59852
ONEWEB-0573             
1 55152U 23004N   24065.76204395 -.00000007  00000+0 -49265-4 0  9998
2 55152  87.9212 141.4288 0001303 134.8571 225.2667 13.18684667 59850
ONEWEB-0588             
1 55153U 23004P   24065.75572024 -.00000045  00000+0 -14616-3 0  9998
2 55153  87.9216 141.3919 0002056 124.0265 236.1062 13.18687150 59852
ONEWEB-0599             
1 55155U 23004R   24065.77720182 -.00000041  00000+0 -13968-3 0  9997
2 55155  87.9272 171.6287 0001655 103.3600 256.7716 13.17651378 57738
ONEWEB-0614             
1 55156U 23004S   24065.84108894 -.00000009  00000+0 -60069-4 0  9995
2 55156  87.9036 186.7773 0002044 112.8618 247.2726 13.11421148 56639
